#cP2005  4 20 00 00 00.00000000    8638 U+u   IGS00 FIT DEOS
## 1319 259200.00000000    10.00000000 53480 0.0000000000000
+    1   L06  0  0  0  0  0  0  0  0  0  0  0  0  0  0  0  0
+          0  0  0  0  0  0  0  0  0  0  0  0  0  0  0  0  0
+          0  0  0  0  0  0  0  0  0  0  0  0  0  0  0  0  0
+          0  0  0  0  0  0  0  0  0  0  0  0  0  0  0  0  0
+          0  0  0  0  0  0  0  0  0  0  0  0  0  0  0  0  0
++         0  0  0  0  0  0  0  0  0  0  0  0  0  0  0  0  0
++         0  0  0  0  0  0  0  0  0  0  0  0  0  0  0  0  0
++         0  0  0  0  0  0  0  0  0  0  0  0  0  0  0  0  0
++         0  0  0  0  0  0  0  0  0  0  0  0  0  0  0  0  0
++         0  0  0  0  0  0  0  0  0  0  0  0  0  0  0  0  0
%c cc cc ccc ccc cccc cccc cccc cccc ccccc ccccc ccccc ccccc
%c cc cc ccc ccc cccc cccc cccc cccc ccccc ccccc ccccc ccccc
%f   .0000000   .000000000   .00000000000   .000000000000000
%f   .0000000   .000000000   .00000000000   .000000000000000
%i    0    0    0    0      0      0      0      0         0
%i    0    0    0    0      0      0      0      0         0
/* NOTE: CCCCCCCCCCCCCCCCCCCCCCCCCCCCCCCCCCCCCCCCCCCCCCCCCCC
/* CCCCCCCCCCCCCCCCCCCCCCCCCCCCCCCCCCCCCCCCCCCCCCCCCCCCCCCCC
/* CCCCCCCCCCCCCCCCCCCCCCCCCCCCCCCCCCCCCCCCCCCCCCCCCCCCCCCCC
/* CCCCCCCCCCCCCCCCCCCCCCCCCCCCCCCCCCCCCCCCCCCCCCCCCCCCCCCCC
*  2005 04 20 01 02 00.00000000
PL06  -5625.867057   2110.212503  -3062.020040 999999.999999
*  2005 04 20 01 02 10.00000000
PL06  -5592.845734   2098.063841  -3130.220539 999999.999999
*  2005 04 20 01 02 20.00000000
PL06  -5559.118586   2085.594987  -3198.013084 999999.999999
*  2005 04 20 01 02 30.00000000
PL06  -5524.690511   2072.806555  -3265.388878 999999.999999
*  2005 04 20 01 02 40.00000000
PL06  -5489.566496   2059.699205  -3332.339182 999999.999999
*  2005 04 20 01 02 50.00000000
PL06  -5453.751620   2046.273648  -3398.855313 999999.999999
*  2005 04 20 01 03 00.00000000
PL06  -5417.251045   2032.530641  -3464.928647 999999.999999
*  2005 04 20 01 03 10.00000000
PL06  -5380.070024   2018.470991  -3530.550618 999999.999999
*  2005 04 20 01 03 20.00000000
PL06  -5342.213895   2004.095553  -3595.712723 999999.999999
*  2005 04 20 01 03 30.00000000
PL06  -5303.688081   1989.405231  -3660.406520 999999.999999
*  2005 04 20 01 03 40.00000000
PL06  -5264.498090   1974.400978  -3724.623628 999999.999999
*  2005 04 20 01 03 50.00000000
PL06  -5224.649512   1959.083792  -3788.355733 999999.999999
*  2005 04 20 01 04 00.00000000
PL06  -5184.148023   1943.454724  -3851.594583 999999.999999
*  2005 04 20 01 04 10.00000000
PL06  -5142.999378   1927.514871  -3914.331994 999999.999999
*  2005 04 20 01 04 20.00000000
PL06  -5101.209415   1911.265377  -3976.559848 999999.999999
*  2005 04 20 01 04 30.00000000
PL06  -5058.784052   1894.707437  -4038.270096 999999.999999
*  2005 04 20 01 04 40.00000000
PL06  -5015.729284   1877.842293  -4099.454758 999999.999999
*  2005 04 20 01 04 50.00000000
PL06  -4972.051188   1860.671234  -4160.105922 999999.999999
*  2005 04 20 01 05 00.00000000
PL06  -4927.755915   1843.195599  -4220.215749 999999.999999
*  2005 04 20 01 05 10.00000000
PL06  -4882.849695   1825.416773  -4279.776471 999999.999999
*  2005 04 20 01 05 20.00000000
PL06  -4837.338833   1807.336190  -4338.780395 999999.999999
*  2005 04 20 01 05 30.00000000
PL06  -4791.229708   1788.955332  -4397.219899 999999.999999
*  2005 04 20 01 05 40.00000000
PL06  -4744.528775   1770.275727  -4455.087437 999999.999999
*  2005 04 20 01 05 50.00000000
PL06  -4697.242558   1751.298954  -4512.375539 999999.999999
*  2005 04 20 01 06 00.00000000
PL06  -4649.377656   1732.026634  -4569.076811 999999.999999
*  2005 04 20 01 06 10.00000000
PL06  -4600.940739   1712.460441  -4625.183939 999999.999999
*  2005 04 20 01 06 20.00000000
PL06  -4551.938545   1692.602092  -4680.689684 999999.999999
*  2005 04 20 01 06 30.00000000
PL06  -4502.377883   1672.453354  -4735.586888 999999.999999
*  2005 04 20 01 06 40.00000000
PL06  -4452.265628   1652.016038  -4789.868475 999999.999999
*  2005 04 20 01 06 50.00000000
PL06  -4401.608724   1631.292005  -4843.527446 999999.999999
*  2005 04 20 01 07 00.00000000
PL06  -4350.414179   1610.283159  -4896.556888 999999.999999
*  2005 04 20 01 07 10.00000000
PL06  -4298.689068   1588.991453  -4948.949968 999999.999999
*  2005 04 20 01 07 20.00000000
PL06  -4246.440529   1567.418887  -5000.699938 999999.999999
*  2005 04 20 01 07 30.00000000
PL06  -4193.675763   1545.567503  -5051.800134 999999.999999
*  2005 04 20 01 07 40.00000000
PL06  -4140.402033   1523.439394  -5102.243977 999999.999999
*  2005 04 20 01 07 50.00000000
PL06  -4086.626664   1501.036695  -5152.024975 999999.999999
*  2005 04 20 01 08 00.00000000
PL06  -4032.357039   1478.361589  -5201.136721 999999.999999
*  2005 04 20 01 08 10.00000000
PL06  -3977.600603   1455.416303  -5249.572897 999999.999999
*  2005 04 20 01 08 20.00000000
PL06  -3922.364856   1432.203109  -5297.327273 999999.999999
*  2005 04 20 01 08 30.00000000
PL06  -3866.657357   1408.724326  -5344.393709 999999.999999
*  2005 04 20 01 08 40.00000000
PL06  -3810.485719   1384.982316  -5390.766154 999999.999999
*  2005 04 20 01 08 50.00000000
PL06  -3753.857612   1360.979485  -5436.438649 999999.999999
*  2005 04 20 01 09 00.00000000
PL06  -3696.780757   1336.718285  -5481.405324 999999.999999
*  2005 04 20 01 09 10.00000000
PL06  -3639.262929   1312.201210  -5525.660404 999999.999999
*  2005 04 20 01 09 20.00000000
PL06  -3581.311954   1287.430798  -5569.198206 999999.999999
*  2005 04 20 01 09 30.00000000
PL06  -3522.935709   1262.409633  -5612.013140 999999.999999
*  2005 04 20 01 09 40.00000000
PL06  -3464.142119   1237.140337  -5654.099709 999999.999999
*  2005 04 20 01 09 50.00000000
PL06  -3404.939158   1211.625580  -5695.452514 999999.999999
*  2005 04 20 01 10 00.00000000
PL06  -3345.334848   1185.868070  -5736.066247 999999.999999
*  2005 04 20 01 10 10.00000000
PL06  -3285.337253   1159.870559  -5775.935699 999999.999999
*  2005 04 20 01 10 20.00000000
PL06  -3224.954487   1133.635843  -5815.055756 999999.999999
*  2005 04 20 01 10 30.00000000
PL06  -3164.194704   1107.166756  -5853.421403 999999.999999
*  2005 04 20 01 10 40.00000000
PL06  -3103.066103   1080.466176  -5891.027719 999999.999999
*  2005 04 20 01 10 50.00000000
PL06  -3041.576923   1053.537020  -5927.869885 999999.999999
*  2005 04 20 01 11 00.00000000
PL06  -2979.735447   1026.382248  -5963.943178 999999.999999
*  2005 04 20 01 11 10.00000000
PL06  -2917.549993    999.004859  -5999.242977 999999.999999
*  2005 04 20 01 11 20.00000000
PL06  -2855.028921    971.407891  -6033.764759 999999.999999
*  2005 04 20 01 11 30.00000000
PL06  -2792.180625    943.594425  -6067.504104 999999.999999
*  2005 04 20 01 11 40.00000000
PL06  -2729.013538    915.567579  -6100.456691 999999.999999
*  2005 04 20 01 11 50.00000000
PL06  -2665.536126    887.330511  -6132.618301 999999.999999
*  2005 04 20 01 12 00.00000000
PL06  -2601.756888    858.886418  -6163.984819 999999.999999
*  2005 04 20 01 12 10.00000000
PL06  -2537.684358    830.238534  -6194.552230 999999.999999
*  2005 04 20 01 12 20.00000000
PL06  -2473.327097    801.390132  -6224.316623 999999.999999
*  2005 04 20 01 12 30.00000000
PL06  -2408.693701    772.344525  -6253.274192 999999.999999
*  2005 04 20 01 12 40.00000000
PL06  -2343.792793    743.105058  -6281.421231 999999.999999
*  2005 04 20 01 12 50.00000000
PL06  -2278.633021    713.675118  -6308.754142 999999.999999
*  2005 04 20 01 13 00.00000000
PL06  -2213.223065    684.058125  -6335.269430 999999.999999
*  2005 04 20 01 13 10.00000000
PL06  -2147.571626    654.257538  -6360.963703 999999.999999
*  2005 04 20 01 13 20.00000000
PL06  -2081.687433    624.276848  -6385.833677 999999.999999
*  2005 04 20 01 13 30.00000000
PL06  -2015.579237    594.119586  -6409.876173 999999.999999
*  2005 04 20 01 13 40.00000000
PL06  -1949.255810    563.789314  -6433.088116 999999.999999
*  2005 04 20 01 13 50.00000000
PL06  -1882.725949    533.289631  -6455.466539 999999.999999
*  2005 04 20 01 14 00.00000000
PL06  -1815.998466    502.624169  -6477.008583 999999.999999
*  2005 04 20 01 14 10.00000000
PL06  -1749.082196    471.796595  -6497.711495 999999.999999
*  2005 04 20 01 14 20.00000000
PL06  -1681.985991    440.810608  -6517.572629 999999.999999
*  2005 04 20 01 14 30.00000000
PL06  -1614.718717    409.669940  -6536.589447 999999.999999
*  2005 04 20 01 14 40.00000000
PL06  -1547.289257    378.378356  -6554.759519 999999.999999
*  2005 04 20 01 14 50.00000000
PL06  -1479.706509    346.939653  -6572.080524 999999.999999
*  2005 04 20 01 15 00.00000000
PL06  -1411.979384    315.357659  -6588.550247 999999.999999
*  2005 04 20 01 15 10.00000000
PL06  -1344.116803    283.636233  -6604.166585 999999.999999
*  2005 04 20 01 15 20.00000000
PL06  -1276.127700    251.779266  -6618.927542 999999.999999
*  2005 04 20 01 15 30.00000000
PL06  -1208.021019    219.790678  -6632.831231 999999.999999
*  2005 04 20 01 15 40.00000000
PL06  -1139.805711    187.674418  -6645.875876 999999.999999
*  2005 04 20 01 15 50.00000000
PL06  -1071.490736    155.434466  -6658.059809 999999.999999
*  2005 04 20 01 16 00.00000000
PL06  -1003.085059    123.074830  -6669.381474 999999.999999
*  2005 04 20 01 16 10.00000000
PL06   -934.597650     90.599545  -6679.839422 999999.999999
*  2005 04 20 01 16 20.00000000
PL06   -866.037485     58.012676  -6689.432317 999999.999999
*  2005 04 20 01 16 30.00000000
PL06   -797.413541     25.318315  -6698.158931 999999.999999
*  2005 04 20 01 16 40.00000000
PL06   -728.734797     -7.479422  -6706.018149 999999.999999
*  2005 04 20 01 16 50.00000000
PL06   -660.010233    -40.376390  -6713.008963 999999.999999
*  2005 04 20 01 17 00.00000000
PL06   -591.248830    -73.368418  -6719.130479 999999.999999
*  2005 04 20 01 17 10.00000000
PL06   -522.459564   -106.451312  -6724.381913 999999.999999
*  2005 04 20 01 17 20.00000000
PL06   -453.651413   -139.620853  -6728.762591 999999.999999
EOF
